start=new Date('2022-01-18T00:00:00.000Z').valueOf();
sats=[{"SITE":"AFETR","PERIOD":"94.739","ELEMENT_SET_NO":"999","INCLINATION":"52.9975","TLE_LINE2":"2 44238  52.9975  87.5612 0001095 120.1323 239.9780 15.19966910145247","GP_ID":"194085412","TLE_LINE1":"1 44238U 19029D   22017.88626234  .00015107  00000-0  70668-3 0  9997","REV_AT_EPOCH":"14524","EPHEMERIS_TYPE":"0","LAUNCH_DATE":"2019-05-24","MEAN_ELEMENT_THEORY":"SGP4","OBJECT_ID":"2019-029D","MEAN_MOTION_DDOT":"0.0000000000000","MEAN_MOTION_DOT":"0.00015107","OBJECT_NAME":"STARLINK-24","COUNTRY_CODE":"US","APOAPSIS":"506.696","RCS_SIZE":"LARGE","MEAN_ANOMALY":"239.9780","CLASSIFICATION_TYPE":"U","REF_FRAME":"TEME","TIME_SYSTEM":"UTC","FILE":"3276075","MEAN_MOTION":"15.19966910","ECCENTRICITY":"0.00010950","RA_OF_ASC_NODE":"87.5612","ARG_OF_PERICENTER":"120.1323","CENTER_NAME":"EARTH","PERIAPSIS":"505.189","BSTAR":"0.00070668000000","SEMIMAJOR_AXIS":"6884.078","OBJECT_TYPE":"PAYLOAD","EPOCH":"2022-01-17T21:16:13.066176","NORAD_CAT_ID":"44238","DECAY_DATE":null},{"PERIAPSIS":"479.590","SEMIMAJOR_AXIS":"6862.789","OBJECT_TYPE":"PAYLOAD","BSTAR":"0.00107150000000","NORAD_CAT_ID":"44249","EPOCH":"2022-01-17T19:15:59.455872","DECAY_DATE":null,"TIME_SYSTEM":"UTC","MEAN_MOTION":"15.27045002","FILE":"3276075","RA_OF_ASC_NODE":"53.6520","ARG_OF_PERICENTER":"37.0496","CENTER_NAME":"EARTH","ECCENTRICITY":"0.00073780","OBJECT_NAME":"STARLINK-61","COUNTRY_CODE":"US","APOAPSIS":"489.717","REF_FRAME":"TEME","RCS_SIZE":"LARGE","MEAN_ANOMALY":"323.1009","CLASSIFICATION_TYPE":"U","ELEMENT_SET_NO":"999","PERIOD":"94.300","INCLINATION":"52.9789","SITE":"AFETR","TLE_LINE2":"2 44249  52.9789  53.6520 0007378  37.0496 323.1009 15.27045002146409","GP_ID":"194086663","TLE_LINE1":"1 44249U 19029Q   22017.80277148  .00028595  00000-0  10715-2 0  9998","REV_AT_EPOCH":"14640","MEAN_MOTION_DDOT":"0.0000000000000","MEAN_MOTION_DOT":"0.00028595","LAUNCH_DATE":"2019-05-24","MEAN_ELEMENT_THEORY":"SGP4","EPHEMERIS_TYPE":"0","OBJECT_ID":"2019-029Q"},{"REV_AT_EPOCH":"14590","TLE_LINE1":"1 44252U 19029T   22017.88190285  .00019513  00000-0  84138-3 0  9997","OBJECT_ID":"2019-029T","LAUNCH_DATE":"2019-05-24","EPHEMERIS_TYPE":"0","MEAN_ELEMENT_THEORY":"SGP4","MEAN_MOTION_DOT":"0.00019513","MEAN_MOTION_DDOT":"0.0000000000000","SITE":"AFETR","PERIOD":"94.576","ELEMENT_SET_NO":"999","INCLINATION":"52.9991","GP_ID":"194086412","TLE_LINE2":"2 44252  52.9991  86.1150 0001344 202.0846 158.0091 15.22577518145905","APOAPSIS":"498.995","CLASSIFICATION_TYPE":"U","MEAN_ANOMALY":"158.0091","RCS_SIZE":"LARGE","REF_FRAME":"TEME","OBJECT_NAME":"STARLINK-71","COUNTRY_CODE":"US","ECCENTRICITY":"0.00013440","CENTER_NAME":"EARTH","ARG_OF_PERICENTER":"202.0846","RA_OF_ASC_NODE":"86.1150","TIME_SYSTEM":"UTC","FILE":"3276075","MEAN_MOTION":"15.22577518","NORAD_CAT_ID":"44252","EPOCH":"2022-01-17T21:09:56.406240","DECAY_DATE":null,"PERIAPSIS":"497.147","BSTAR":"0.00084138000000","OBJECT_TYPE":"PAYLOAD","SEMIMAJOR_AXIS":"6876.206"},{"MEAN_MOTION_DOT":"0.00765974","MEAN_MOTION_DDOT":"0.0000000000000","OBJECT_ID":"2019-029Y","LAUNCH_DATE":"2019-05-24","EPHEMERIS_TYPE":"0","MEAN_ELEMENT_THEORY":"SGP4","TLE_LINE1":"1 44257U 19029Y   22017.89598598  .00765974  00000-0  26872-2 0  9991","REV_AT_EPOCH":"14839","GP_ID":"194085663","TLE_LINE2":"2 44257  52.9875 281.0442 0008657 166.5973 193.5282 15.86760051148398","PERIOD":"90.751","ELEMENT_SET_NO":"999","INCLINATION":"52.9875","SITE":"AFETR","REF_FRAME":"TEME","CLASSIFICATION_TYPE":"U","RCS_SIZE":"LARGE","MEAN_ANOMALY":"193.5282","APOAPSIS":"317.167","COUNTRY_CODE":"US","OBJECT_NAME":"STARLINK-43","CENTER_NAME":"EARTH","ARG_OF_PERICENTER":"166.5973","RA_OF_ASC_NODE":"281.0442","ECCENTRICITY":"0.00086570","MEAN_MOTION":"15.86760051","FILE":"3276075","TIME_SYSTEM":"UTC","DECAY_DATE":null,"EPOCH":"2022-01-17T21:30:13.188672","NORAD_CAT_ID":"44257","OBJECT_TYPE":"PAYLOAD","SEMIMAJOR_AXIS":"6689.510","BSTAR":"0.00268720000000","PERIAPSIS":"305.584"},{"TIME_SYSTEM":"UTC","FILE":"3276075","MEAN_MOTION":"15.42089106","ECCENTRICITY":"0.00015890","CENTER_NAME":"EARTH","ARG_OF_PERICENTER":"154.5959","RA_OF_ASC_NODE":"351.7471","PERIAPSIS":"438.863","BSTAR":"0.00120520000000","OBJECT_TYPE":"PAYLOAD","SEMIMAJOR_AXIS":"6818.082","EPOCH":"2022-01-17T15:47:26.274336","NORAD_CAT_ID":"44282","DECAY_DATE":null,"SITE":"AFETR","ELEMENT_SET_NO":"999","PERIOD":"93.380","INCLINATION":"53.0181","GP_ID":"194085913","TLE_LINE2":"2 44282  53.0181 351.7471 0001589 154.5959 205.5123 15.42089106146745","TLE_LINE1":"1 44282U 19029AZ  22017.65794299  .00052273  00000-0  12052-2 0  9995","REV_AT_EPOCH":"14674","OBJECT_ID":"2019-029AZ","EPHEMERIS_TYPE":"0","LAUNCH_DATE":"2019-05-24","MEAN_ELEMENT_THEORY":"SGP4","MEAN_MOTION_DOT":"0.00052273","MEAN_MOTION_DDOT":"0.0000000000000","OBJECT_NAME":"STARLINK-80","COUNTRY_CODE":"US","APOAPSIS":"441.030","CLASSIFICATION_TYPE":"U","RCS_SIZE":"LARGE","MEAN_ANOMALY":"205.5123","REF_FRAME":"TEME"},{"DECAY_DATE":null,"EPOCH":"2022-01-17T16:19:21.001152","NORAD_CAT_ID":"44713","OBJECT_TYPE":"PAYLOAD","SEMIMAJOR_AXIS":"6925.402","BSTAR":"-0.00010511000000","PERIAPSIS":"546.296","CENTER_NAME":"EARTH","ARG_OF_PERICENTER":"98.7158","RA_OF_ASC_NODE":"134.2985","ECCENTRICITY":"0.00014010","MEAN_MOTION":"15.06382690","FILE":"3276075","TIME_SYSTEM":"UTC","REF_FRAME":"TEME","CLASSIFICATION_TYPE":"U","RCS_SIZE":"LARGE","MEAN_ANOMALY":"261.3989","APOAPSIS":"548.237","COUNTRY_CODE":"US","OBJECT_NAME":"STARLINK-1007","MEAN_MOTION_DOT":"-0.00001846","MEAN_MOTION_DDOT":"0.0000000000000","OBJECT_ID":"2019-074A","EPHEMERIS_TYPE":"0","LAUNCH_DATE":"2019-11-11","MEAN_ELEMENT_THEORY":"SGP4","TLE_LINE1":"1 44713U 19074A   22017.68010418 -.00001846  00000-0 -10511-3 0  9992","REV_AT_EPOCH":"12085","GP_ID":"194085452","TLE_LINE2":"2 44713  53.0529 134.2985 0001401  98.7158 261.3989 15.06382690120855","ELEMENT_SET_NO":"999","PERIOD":"95.593","INCLINATION":"53.0529","SITE":"AFETR"},{"TLE_LINE2":"2 44714  53.0542 134.0984 0001631  80.3928 279.7245 15.06390825120863","GP_ID":"194086703","PERIOD":"95.593","ELEMENT_SET_NO":"999","INCLINATION":"53.0542","SITE":"AFETR","MEAN_MOTION_DDOT":"0.0000000000000","MEAN_MOTION_DOT":"-0.00002529","MEAN_ELEMENT_THEORY":"SGP4","LAUNCH_DATE":"2019-11-11","EPHEMERIS_TYPE":"0","OBJECT_ID":"2019-074B","REV_AT_EPOCH":"12086","TLE_LINE1":"1 44714U 19074B   22017.72527500 -.00002529  00000-0 -15098-3 0  9997","COUNTRY_CODE":"US","OBJECT_NAME":"STARLINK-1008","REF_FRAME":"TEME","RCS_SIZE":"LARGE","MEAN_ANOMALY":"279.7245","CLASSIFICATION_TYPE":"U","APOAPSIS":"548.371","MEAN_MOTION":"15.06390825","FILE":"3276075","TIME_SYSTEM":"UTC","RA_OF_ASC_NODE":"134.0984","ARG_OF_PERICENTER":"80.3928","CENTER_NAME":"EARTH","ECCENTRICITY":"0.00016310","SEMIMAJOR_AXIS":"6925.377","OBJECT_TYPE":"PAYLOAD","BSTAR":"-0.00015098000000","PERIAPSIS":"546.112","DECAY_DATE":null,"EPOCH":"2022-01-17T17:24:23.760000","NORAD_CAT_ID":"44714"},{"EPOCH":"2022-01-17T18:44:00.521376","NORAD_CAT_ID":"44715","DECAY_DATE":null,"PERIAPSIS":"546.293","BSTAR":"-0.00016704000000","OBJECT_TYPE":"PAYLOAD","SEMIMAJOR_AXIS":"6925.388","ECCENTRICITY":"0.00013870","CENTER_NAME":"EARTH","ARG_OF_PERICENTER":"100.6392","RA_OF_ASC_NODE":"133.8433","TIME_SYSTEM":"UTC","FILE":"3276075","MEAN_MOTION":"15.06387108","APOAPSIS":"548.214","CLASSIFICATION_TYPE":"U","MEAN_ANOMALY":"259.4754","RCS_SIZE":"LARGE","REF_FRAME":"TEME","OBJECT_NAME":"STARLINK-1009","COUNTRY_CODE":"US","REV_AT_EPOCH":"12086","TLE_LINE1":"1 44715U 19074C   22017.78056159 -.00002768  00000-0 -16704-3 0  9991","OBJECT_ID":"2019-074C","EPHEMERIS_TYPE":"0","LAUNCH_DATE":"2019-11-11","MEAN_ELEMENT_THEORY":"SGP4","MEAN_MOTION_DOT":"-0.00002768","MEAN_MOTION_DDOT":"0.0000000000000","SITE":"AFETR","PERIOD":"95.593","ELEMENT_SET_NO":"999","INCLINATION":"53.0539","GP_ID":"194086452","TLE_LINE2":"2 44715  53.0539 133.8433 0001387 100.6392 259.4754 15.06387108120865"},{"COUNTRY_CODE":"US","OBJECT_NAME":"STARLINK-1010","CLASSIFICATION_TYPE":"U","MEAN_ANOMALY":"262.1774","RCS_SIZE":"LARGE","REF_FRAME":"TEME","APOAPSIS":"548.162","GP_ID":"194085703","TLE_LINE2":"2 44716  53.0552 134.0653 0001326  97.9365 262.1774 15.06390264120847","SITE":"AFETR","ELEMENT_SET_NO":"999","PERIOD":"95.593","INCLINATION":"53.0552","OBJECT_ID":"2019-074D","EPHEMERIS_TYPE":"0","LAUNCH_DATE":"2019-11-11","MEAN_ELEMENT_THEORY":"SGP4","MEAN_MOTION_DOT":"-0.00002456","MEAN_MOTION_DDOT":"0.0000000000000","TLE_LINE1":"1 44716U 19074D   22017.73264121 -.00002456  00000-0 -14606-3 0  9990","REV_AT_EPOCH":"12084","BSTAR":"-0.00014606000000","OBJECT_TYPE":"PAYLOAD","SEMIMAJOR_AXIS":"6925.378","PERIAPSIS":"546.325","DECAY_DATE":null,"NORAD_CAT_ID":"44716","EPOCH":"2022-01-17T17:35:00.200544","FILE":"3276075","MEAN_MOTION":"15.06390264","TIME_SYSTEM":"UTC","ECCENTRICITY":"0.00013260","CENTER_NAME":"EARTH","ARG_OF_PERICENTER":"97.9365","RA_OF_ASC_NODE":"134.0653"},{"DECAY_DATE":null,"NORAD_CAT_ID":"44717","EPOCH":"2022-01-17T20:43:25.860864","SEMIMAJOR_AXIS":"6925.362","OBJECT_TYPE":"PAYLOAD","BSTAR":"-0.00001657800000","PERIAPSIS":"546.047","RA_OF_ASC_NODE":"153.4607","ARG_OF_PERICENTER":"85.9188","CENTER_NAME":"EARTH","ECCENTRICITY":"0.00017050","MEAN_MOTION":"15.06395496","FILE":"3276075","TIME_SYSTEM":"UTC","REF_FRAME":"TEME","MEAN_ANOMALY":"274.1996","RCS_SIZE":"LARGE","CLASSIFICATION_TYPE":"U","APOAPSIS":"548.408","COUNTRY_CODE":"US","OBJECT_NAME":"STARLINK-1011","MEAN_MOTION_DDOT":"0.0000000000000","MEAN_MOTION_DOT":"-0.00000528","LAUNCH_DATE":"2019-11-11","EPHEMERIS_TYPE":"0","MEAN_ELEMENT_THEORY":"SGP4","OBJECT_ID":"2019-074E","REV_AT_EPOCH":"12060","TLE_LINE1":"1 44717U 19074E   22017.86349376 -.00000528  00000-0 -16578-4 0  9990","TLE_LINE2":"2 44717  53.0537 153.4607 0001705  85.9188 274.1996 15.06395496120601","GP_ID":"194085953","ELEMENT_SET_NO":"999","PERIOD":"95.592","INCLINATION":"53.0537","SITE":"AFETR"}];
